{
    "links": {
        "self": "http://www.neowsapp.com/rest/v1/neo/3735182?api_key=iIulBulltgU6a56xZRHN4H3l9WmuAYTsLGpBGhQ2"
    },
    "id": "3735182",
    "neo_reference_id": "3735182",
    "name": "(2015 VP142)",
    "designation": "2015 VP142",
    "nasa_jpl_url": "http://ssd.jpl.nasa.gov/sbdb.cgi?sstr=3735182",
    "absolute_magnitude_h": 23.1,
    "estimated_diameter": {
        "kilometers": {
            "estimated_diameter_min": 0.063760979,
            "estimated_diameter_max": 0.1425738833
        },
        "meters": {
            "estimated_diameter_min": 63.7609789875,
            "estimated_diameter_max": 142.5738833281
        },
        "miles": {
            "estimated_diameter_min": 0.0396192233,
            "estimated_diameter_max": 0.0885912765
        },
        "feet": {
            "estimated_diameter_min": 209.1895703015,
            "estimated_diameter_max": 467.7620993781
        }
    },
    "is_potentially_hazardous_asteroid": false,
    "close_approach_data": [
        {
            "close_approach_date": "2013-10-20",
            "close_approach_date_full": "2013-Oct-20 00:11",
            "epoch_date_close_approach": 1382227860000,
            "relative_velocity": {
                "kilometers_per_second": "14.0947982606",
                "kilometers_per_hour": "50741.273738065",
                "miles_per_hour": "31528.6542290771"
            },
            "miss_distance": {
                "astronomical": "0.3748277826",
                "lunar": "145.8080074314",
                "kilometers": "56073437.893783062",
                "miles": "34842418.6427757756"
            },
            "orbiting_body": "Earth"
        },
        {
            "close_approach_date": "2015-10-18",
            "close_approach_date_full": "2015-Oct-18 03:35",
            "epoch_date_close_approach": 1445139300000,
            "relative_velocity": {
                "kilometers_per_second": "9.1844991914",
                "kilometers_per_hour": "33064.1970890463",
                "miles_per_hour": "20544.8062412466"
            },
            "miss_distance": {
                "astronomical": "0.1665162134",
                "lunar": "64.7748070126",
                "kilometers": "24910470.845105458",
                "miles": "15478648.8286650004"
            },
            "orbiting_body": "Earth"
        },
        {
            "close_approach_date": "2017-10-26",
            "close_approach_date_full": "2017-Oct-26 09:25",
            "epoch_date_close_approach": 1509009900000,
            "relative_velocity": {
                "kilometers_per_second": "7.9639436857",
                "kilometers_per_hour": "28670.197268696",
                "miles_per_hour": "17814.5456306517"
            },
            "miss_distance": {
                "astronomical": "0.2990568161",
                "lunar": "116.3331014629",
                "kilometers": "44738262.697541707",
                "miles": "27799067.3803692766"
            },
            "orbiting_body": "Earth"
        }
    ],
    "orbital_data": {
        "orbit_id": "6",
        "orbit_determination_date": "2017-04-06 08:30:36",
        "first_observation_date": "2015-11-14",
        "last_observation_date": "2015-12-02",
        "data_arc_in_days": 18,
        "observations_used": 26,
        "orbit_uncertainty": "7",
        "minimum_orbit_intersection": ".163211",
        "jupiter_tisserand_invariant": "4.344",
        "epoch_osculation": "2459000.5",
        "eccentricity": ".2874167538144065",
        "semi_major_axis": "1.5619719576829",
        "inclination": "15.2668853089417",
        "ascending_node_longitude": "39.22513636167623",
        "orbital_period": "713.0307767880696",
        "perihelion_distance": "1.113035048056547",
        "perihelion_argument": "317.4944654718658",
        "aphelion_distance": "2.010908867309253",
        "perihelion_time": "2458713.267851762771",
        "mean_anomaly": "145.0197897925192",
        "mean_motion": ".5048870423541352",
        "equinox": "J2000",
        "orbit_class": {
            "orbit_class_type": "AMO",
            "orbit_class_description": "Near-Earth asteroid orbits similar to that of 1221 Amor",
            "orbit_class_range": "1.017 AU < q (perihelion) < 1.3 AU"
        }
    },
    "is_sentry_object": false
}